{"type": "FeatureCollection", "features": [{"type": "Feature", "properties": {"class": "building", "id": 0}, "geometry": {"type": "Polygon", "coordinates": [[[4.983329847949219, 52.40880715432168], [4.9853897344726565, 52.40880715432168], [4.9853897344726565, 52.40985424155116], [4.983329847949219, 52.40985424155116], [4.983329847949219, 52.40880715432168]]]}}, {"type": "Feature", "properties": {"class": "water", "id": 1}, "geometry": {"type": "Polygon", "coordinates": [[[4.9874496209960935, 52.41037778516589], [4.98950950751953, 52.41037778516589], [4.98950950751953, 52.41142487239537], [4.9874496209960935, 52.41142487239537], [4.9874496209960935, 52.41037778516589]]]}}, {"type": "Feature", "properties": {"class": "building", "id": 2}, "geometry": {"type": "Polygon", "coordinates": [[[4.986419677734375, 52.40880715432168], [4.988479564257812, 52.40880715432168], [4.988479564257812, 52.40985424155116], [4.986419677734375, 52.40985424155116], [4.986419677734375, 52.40880715432168]]]}}]}